NORAD_CAT_ID,OBJECT_NAME,OBJECT_TYPE,EPOCH,MEAN_MOTION,ECCENTRICITY,INCLINATION,RA_OF_ASC_NODE,ARG_OF_PERICENTER,MEAN_ANOMALY,BSTAR,MEAN_MOTION_DOT,MEAN_MOTION_DDOT,TLE_LINE0,TLE_LINE1,TLE_LINE2,SEMIMAJOR_AXIS,PERIOD,APOGEE,PERIGEE,DECAYED
55755.0,STARLINK-5619,PAYLOAD,2023-12-11 21:00:32,14.98329144,0.0002702,69.9989,148.8117,268.5703,91.5147,9.8125e-06,2.4e-07,0.0,0 STARLINK-5619,1 55755U 23028Q   23345.87537800  .00000024  00000-0  98125-5 0  9993,2 55755  69.9989 148.8117 0002702 268.5703  91.5147 14.98329144 43392,6950.196,96.107,573.938,570.183,0.0
55755.0,STARLINK-5619,PAYLOAD,2023-12-12 13:01:53,14.98331905,0.0002736,69.9988,147.1285,268.2165,91.8681,1.5682e-05,9.4e-07,0.0,0 STARLINK-5619,1 55755U 23028Q   23346.54297589  .00000094  00000-0  15682-4 0  9998,2 55755  69.9988 147.1285 0002736 268.2165  91.8681 14.98331905 43490,6950.187,96.107,573.954,570.15,0.0
55755.0,STARLINK-5619,PAYLOAD,2023-12-12 19:26:25,14.98331426,0.0002768,69.9989,146.4551,269.4984,90.5857,8.2536e-06,6e-08,0.0,0 STARLINK-5619,1 55755U 23028Q   23346.81001622  .00000006  00000-0  82536-5 0  9995,2 55755  69.9989 146.4551 0002768 269.4984  90.5857 14.98331426 43530,6950.188,96.107,573.977,570.13,0.0
55755.0,STARLINK-5619,PAYLOAD,2023-12-12 21:02:33,14.98332388,0.0002757,69.999,146.2871,268.5099,91.5745,1.8347e-05,1.26e-06,0.0,0 STARLINK-5619,1 55755U 23028Q   23346.87677532  .00000126  00000-0  18347-4 0  9991,2 55755  69.9990 146.2871 0002757 268.5099  91.5745 14.98332388 43546,6950.186,96.107,573.967,570.134,0.0
55755.0,STARLINK-5619,PAYLOAD,2023-12-13 11:27:45,14.98361531,0.0002613,69.9991,144.7723,272.5361,87.5499,-0.00047207,-5.726e-05,0.0,0 STARLINK-5619,1 55755U 23028Q   23347.47761347 -.00005726  00000-0 -47207-3 0  9995,2 55755  69.9991 144.7723 0002613 272.5361  87.5499 14.98361531 43637,6950.095,96.105,573.776,570.144,0.0
55755.0,STARLINK-5619,PAYLOAD,2023-12-13 14:40:02,14.98330644,0.0002764,69.9992,144.4354,268.7883,91.296,3.4571e-05,3.2e-06,0.0,0 STARLINK-5619,1 55755U 23028Q   23347.61113516  .00000320  00000-0  34571-4 0  9994,2 55755  69.9992 144.4354 0002764 268.7883  91.2960 14.98330644 43656,6950.191,96.107,573.977,570.135,0.0
55755.0,STARLINK-5619,PAYLOAD,2023-12-13 19:28:26,14.98330491,0.0002776,69.9992,143.9305,269.609,90.475,3.083e-05,2.75e-06,0.0,0 STARLINK-5619,1 55755U 23028Q   23347.81141535  .00000275  00000-0  30830-4 0  9991,2 55755  69.9992 143.9305 0002776 269.6090  90.4750 14.98330491 43680,6950.191,96.107,573.986,570.127,0.0
55755.0,STARLINK-5619,PAYLOAD,2023-12-13 21:04:34,14.98330928,0.0002771,69.9992,143.7624,268.9696,91.1146,3.4341e-05,3.17e-06,0.0,0 STARLINK-5619,1 55755U 23028Q   23347.87817487  .00000317  00000-0  34341-4 0  9991,2 55755  69.9992 143.7624 0002771 268.9696  91.1146 14.98330928 43694,6950.19,96.107,573.981,570.129,0.0
55755.0,STARLINK-5619,PAYLOAD,2023-12-14 14:42:03,14.98330573,0.0002736,69.9995,141.9112,267.5192,92.5654,1.6008e-05,9.8e-07,0.0,0 STARLINK-5619,1 55755U 23028Q   23348.61253530  .00000098  00000-0  16008-4 0  9993,2 55755  69.9995 141.9112 0002736 267.5192  92.5654 14.98330573 43804,6950.191,96.107,573.958,570.155,0.0
55755.0,STARLINK-5619,PAYLOAD,2023-12-14 19:30:27,14.9832967,0.0002609,69.9994,141.4059,260.9206,99.1658,2.401e-05,1.94e-06,0.0,0 STARLINK-5619,1 55755U 23028Q   23348.81281537  .00000194  00000-0  24010-4 0  9992,2 55755  69.9994 141.4059 0002609 260.9206  99.1658 14.98329670 43836,6950.194,96.107,573.872,570.246,0.0
55755.0,STARLINK-5619,PAYLOAD,2023-12-15 14:44:04,14.98328624,0.000272,69.9995,139.3863,261.5676,98.5175,-8.8133e-06,-1.98e-06,0.0,0 STARLINK-5619,1 55755U 23028Q   23349.61393673 -.00000198  00000-0 -88133-5 0  9999,2 55755  69.9995 139.3863 0002720 261.5676  98.5175 14.98328624 43956,6950.197,96.107,573.953,570.172,0.0
55755.0,STARLINK-5619,PAYLOAD,2023-12-15 19:32:28,14.98327984,0.0002717,69.9994,138.8813,260.5885,99.4967,-9.6553e-06,-2.08e-06,0.0,0 STARLINK-5619,1 55755U 23028Q   23349.81421748 -.00000208  00000-0 -96553-5 0  9993,2 55755  69.9994 138.8813 0002717 260.5885  99.4967 14.98327984 43981,6950.199,96.107,573.952,570.176,0.0
55755.0,STARLINK-5619,PAYLOAD,2023-12-16 13:09:56,14.98331541,0.0002754,69.9989,137.0283,261.3492,98.7355,2.9868e-05,2.63e-06,0.0,0 STARLINK-5619,1 55755U 23028Q   23350.54857418  .00000263  00000-0  29868-4 0  9995,2 55755  69.9989 137.0283 0002754 261.3492  98.7355 14.98331541 44091,6950.188,96.107,573.967,570.139,0.0
55755.0,STARLINK-5619,PAYLOAD,2023-12-16 19:34:29,14.98331853,0.0002518,69.9995,136.3551,266.2872,93.7999,5.9966e-05,6.23e-06,0.0,0 STARLINK-5619,1 55755U 23028Q   23350.81561375  .00000623  00000-0  59966-4 0  9991,2 55755  69.9995 136.3551 0002518 266.2872  93.7999 14.98331853 44132,6950.187,96.107,573.802,570.302,0.0
55755.0,STARLINK-5619,PAYLOAD,2023-12-17 14:48:06,14.98326049,0.000275,69.9992,134.3354,263.5396,96.5449,4.3308e-05,4.24e-06,0.0,0 STARLINK-5619,1 55755U 23028Q   23351.61673724  .00000424  00000-0  43308-4 0  9994,2 55755  69.9992 134.3354 0002750 263.5396  96.5449 14.98326049 44252,6950.205,96.107,573.981,570.159,0.0
55755.0,STARLINK-5619,PAYLOAD,2023-12-17 19:36:30,14.98328821,0.0002668,69.9996,133.8314,263.301,96.7845,7.69e-05,8.25e-06,0.0,0 STARLINK-5619,1 55755U 23028Q   23351.81701511  .00000825  00000-0  76900-4 0  9991,2 55755  69.9996 133.8314 0002668 263.3010  96.7845 14.98328821 44280,6950.197,96.107,573.916,570.207,0.0
55755.0,STARLINK-5619,PAYLOAD,2023-12-18 11:37:50,14.98358909,0.0002807,69.9992,132.1493,249.3502,110.7357,-0.00032655,-3.99e-05,0.0,0 STARLINK-5619,1 55755U 23028Q   23352.48460687 -.00003990  00000-0 -32655-3 0  9997,2 55755  69.9992 132.1493 0002807 249.3502 110.7357 14.98358909 44387,6950.103,96.105,573.919,570.018,0.0
55755.0,STARLINK-5619,PAYLOAD,2023-12-18 14:50:06,14.98335855,0.0002922,69.9994,131.8122,264.1428,95.9398,7.9859e-05,8.6e-06,0.0,0 STARLINK-5619,1 55755U 23028Q   23352.61812902  .00000860  00000-0  79859-4 0  9992,2 55755  69.9994 131.8122 0002922 264.1428  95.9398 14.98335855 44401,6950.175,96.107,574.071,570.009,0.0
55755.0,STARLINK-5619,PAYLOAD,2023-12-18 19:38:30,14.98338482,0.0002873,69.9994,131.3074,262.2272,97.8561,7.6553e-05,8.21e-06,0.0,0 STARLINK-5619,1 55755U 23028Q   23352.81840629  .00000821  00000-0  76553-4 0  9996,2 55755  69.9994 131.3074 0002873 262.2272  97.8561 14.98338482 44438,6950.167,96.106,574.028,570.035,0.0
55755.0,STARLINK-5619,PAYLOAD,2023-12-19 14:52:07,14.98328359,0.0002075,70.0005,129.2887,230.2377,129.86,-5.3994e-05,-7.37e-06,0.0,0 STARLINK-5619,1 55755U 23028Q   23353.61953591 -.00000737  00000-0 -53994-4 0  9990,2 55755  70.0005 129.2887 0002075 230.2377 129.8600 14.98328359 44552,6950.198,96.107,573.505,570.621,0.0
55755.0,STARLINK-5619,PAYLOAD,2023-12-20 11:41:52,14.98330084,0.0002725,70.0004,127.1016,250.1438,109.9427,-1.0242e-05,-2.15e-06,0.0,0 STARLINK-5619,1 55755U 23028Q   23354.48741379 -.00000215  00000-0 -10242-4 0  9995,2 55755  70.0004 127.1016 0002725 250.1438 109.9427 14.98330084 44681,6950.193,96.107,573.952,570.164,0.0
55755.0,STARLINK-5619,PAYLOAD,2023-12-20 13:18:00,14.98331863,0.0002624,70.0005,126.9325,254.1709,105.9161,-1.0975e-05,-2.24e-06,0.0,0 STARLINK-5619,1 55755U 23028Q   23354.55417296 -.00000224  00000-0 -10975-4 0  9994,2 55755  70.0005 126.9325 0002624 254.1709 105.9161 14.98331863 44693,6950.187,96.107,573.876,570.228,0.0
55755.0,STARLINK-5619,PAYLOAD,2023-12-20 18:06:24,14.98333891,0.0002746,70.0003,126.4277,254.6095,105.4761,2.059e-05,1.53e-06,0.0,0 STARLINK-5619,1 55755U 23028Q   23354.75445054  .00000153  00000-0  20590-4 0  9992,2 55755  70.0003 126.4277 0002746 254.6095 105.4761 14.98333891 44728,6950.181,96.107,573.954,570.137,0.0
55755.0,STARLINK-5619,PAYLOAD,2023-12-21 11:43:53,14.98323778,0.0002584,70.0004,124.5756,255.8152,104.272,6.6716e-05,7.03e-06,0.0,0 STARLINK-5619,1 55755U 23028Q   23355.48881698  .00000703  00000-0  66716-4 0  9992,2 55755  70.0004 124.5756 0002584 255.8152 104.2720 14.98323778 44834,6950.212,96.107,573.873,570.281,0.0
55755.0,STARLINK-5619,PAYLOAD,2023-12-21 14:56:09,14.98323516,0.0002587,70.0005,124.239,254.6701,105.4172,6.2045e-05,6.47e-06,0.0,0 STARLINK-5619,1 55755U 23028Q   23355.62233779  .00000647  00000-0  62045-4 0  9997,2 55755  70.0005 124.2390 0002587 254.6701 105.4172 14.98323516 44852,6950.213,96.107,573.876,570.28,0.0
55755.0,STARLINK-5619,PAYLOAD,2023-12-22 11:45:54,14.98332827,0.0002637,70.0003,122.0504,258.8599,101.2263,5.0748e-05,5.13e-06,0.0,0 STARLINK-5619,1 55755U 23028Q   23356.49021378  .00000513  00000-0  50748-4 0  9992,2 55755  70.0003 122.0504 0002637 258.8599 101.2263 14.98332827 44984,6950.184,96.107,573.882,570.216,0.0
55755.0,STARLINK-5619,PAYLOAD,2023-12-22 13:22:02,14.98333609,0.0002619,70.0004,121.8822,258.3228,101.7637,6.1685e-05,6.43e-06,0.0,0 STARLINK-5619,1 55755U 23028Q   23356.55697310  .00000643  00000-0  61685-4 0  9990,2 55755  70.0004 121.8822 0002619 258.3228 101.7637 14.98333609 44999,6950.182,96.107,573.867,570.226,0.0
55755.0,STARLINK-5619,PAYLOAD,2023-12-22 18:10:26,14.98334578,0.0002622,70.0005,121.3774,259.4475,100.6389,6.9626e-05,7.38e-06,0.0,0 STARLINK-5619,1 55755U 23028Q   23356.75725197  .00000738  00000-0  69626-4 0  9995,2 55755  70.0005 121.3774 0002622 259.4475 100.6389 14.98334578 45024,6950.179,96.107,573.866,570.221,0.0
55755.0,STARLINK-5619,PAYLOAD,2023-12-23 11:47:55,14.98330465,0.0002627,70.0006,119.5258,260.9927,99.0935,7.8736e-05,8.47e-06,0.0,0 STARLINK-5619,1 55755U 23028Q   23357.49161350  .00000847  00000-0  78736-4 0  9995,2 55755  70.0006 119.5258 0002627 260.9927  99.0935 14.98330465 45136,6950.191,96.107,573.882,570.231,0.0
55755.0,STARLINK-5619,PAYLOAD,2023-12-23 13:24:03,14.98330634,0.0002634,70.0006,119.3575,261.0384,99.0477,7.9199e-05,8.52e-06,0.0,0 STARLINK-5619,1 55755U 23028Q   23357.55837352  .00000852  00000-0  79199-4 0  9994,2 55755  70.0006 119.3575 0002634 261.0384  99.0477 14.98330634 45143,6950.191,96.107,573.887,570.225,0.0
